STARLINK-30566          
1 58054U 23158D   26068.24204221 -.00175118  00000+0 -66934-2 0  9994
2 58054  42.9973  29.3979 0000667 266.2017  93.8758 15.26649023133500
FLOCK 4G-18             
1 62680U 25009BZ  26068.19114186  .00011766  00000+0  44319-3 0  9995
2 62680  97.4054 150.5008 0004100 335.7331  24.3715 15.27241676121267
